HULIANWANG DIGUI-108    
1 66918U 25285D   26201.90646593 -.00000127  00000+0 -68991-5 0  9994
2 66918  50.0062  25.0631 0000928  59.1080 300.9883 13.29326008 30541
HULIANWANG DIGUI-109    
1 66919U 25285E   26201.97321692 -.00000120  00000+0  85796-5 0  9996
2 66919  50.0087  24.7955 0000892  67.9317 292.1650 13.29316729 30569
HULIANWANG DIGUI-110    
1 66920U 25285F   26202.19051770 -.00000121  00000+0  56937-5 0  9996
2 66920  50.0120  24.0020 0000870  60.1602 299.9357 13.29326520 30584
HULIANWANG DIGUI-111    
1 66921U 25285G   26202.18220253 -.00000108  00000+0  34469-4 0  9990
2 66921  50.0134  23.9891 0000894  59.6622 300.4339 13.29326077 30580
HULIANWANG DIGUI-112    
1 66922U 25285H   26202.24898608 -.00000120  00000+0  79924-5 0  9993
2 66922  50.0099  23.6105 0000943  56.7572 303.3391 13.29325919 30598
HULIANWANG DIGUI-113    
1 66923U 25285J   26202.24074418 -.00000117  00000+0  14248-4 0  9992
2 66923  50.0109  23.5847 0000944  56.2111 303.8851 13.29324386 30591
HULIANWANG DIGUI-114    
1 66953U 25287A   26202.13849407  .00000050  00000+0  82669-4 0  9990
2 66953  86.4922 270.8949 0002264  95.8213 264.3179 13.24413722 29836
HULIANWANG DIGUI-115    
1 66954U 25287B   26202.20623897  .00000039  00000+0  57507-4 0  9992
2 66954  86.4938 270.9021 0002514  92.5905 267.5517 13.24401170 29842
HULIANWANG DIGUI-116    
1 66955U 25287C   26202.19893952  .00000029  00000+0  33226-4 0  9993
2 66955  86.4878 270.7617 0002329  93.5013 266.6387 13.24413351 29849
HULIANWANG DIGUI-117    
1 66956U 25287D   26202.11587031  .00000026  00000+0  27580-4 0  9997
2 66956  86.4939 270.9219 0000763  75.9707 284.1512 13.24413072 29836
HULIANWANG DIGUI-118    
1 66957U 25287E   26202.18385573  .00000014  00000+0 -17046-5 0  9997
2 66957  86.4915 270.8384 0002308  95.3743 264.7655 13.24412507 29841
HULIANWANG DIGUI-119    
1 67059U 25295A   26202.21280282 -.00000093  00000+0  67509-4 0  9990
2 67059  50.0028 263.7497 0001119 214.1317 145.9483 13.29324919 30025
HULIANWANG DIGUI-120    
1 67060U 25295B   26201.36913198 -.00000097  00000+0  58985-4 0  9998
2 67060  50.0037 266.6390 0001170 211.7072 148.3729 13.29324813 29918
HULIANWANG DIGUI-121    
1 67061U 25295C   26202.12926844 -.00000092  00000+0  68814-4 0  9993
2 67061  49.9996 263.9105 0001156 212.6022 147.4779 13.29326189 30019
HULIANWANG DIGUI-122    
1 67062U 25295D   26202.18767461 -.00000100  00000+0  51708-4 0  9992
2 67062  50.0029 263.6193 0001159 212.5505 147.5296 13.29324806 30022
HULIANWANG DIGUI-123    
1 67063U 25295E   26202.10420045 -.00000097  00000+0  58137-4 0  9997
2 67063  50.0030 263.8493 0001074 213.9563 146.1240 13.29324427 30017
