{"fetched_at":"2026-07-21T17:53:31.607Z","source":"https://celestrak.org/NORAD/elements/gp.php?NAME=HULIANWANG&FORMAT=JSON","constellation":"guowang","records":[{"OBJECT_NAME":"HULIANWANG DIGUI-108","OBJECT_ID":"2025-285D","EPOCH":"2026-07-20T21:45:18.656352","CLASSIFICATION_TYPE":"U","MEAN_MOTION":13.29326008,"ECCENTRICITY":0.0000928,"INCLINATION":50.0062,"RA_OF_ASC_NODE":25.0631,"ARG_OF_PERICENTER":59.108,"MEAN_ANOMALY":300.9883,"EPHEMERIS_TYPE":0,"NORAD_CAT_ID":66918,"ELEMENT_SET_NO":999,"REV_AT_EPOCH":3054,"BSTAR":-0.000006899122,"MEAN_MOTION_DOT":-0.00000127,"MEAN_MOTION_DDOT":0},{"OBJECT_NAME":"HULIANWANG DIGUI-109","OBJECT_ID":"2025-285E","EPOCH":"2026-07-20T23:21:25.941888","CLASSIFICATION_TYPE":"U","MEAN_MOTION":13.29316729,"ECCENTRICITY":0.00008926,"INCLINATION":50.0087,"RA_OF_ASC_NODE":24.7955,"ARG_OF_PERICENTER":67.9317,"MEAN_ANOMALY":292.165,"EPHEMERIS_TYPE":0,"NORAD_CAT_ID":66919,"ELEMENT_SET_NO":999,"REV_AT_EPOCH":3056,"BSTAR":0.000008579587,"MEAN_MOTION_DOT":-0.0000012,"MEAN_MOTION_DDOT":0},{"OBJECT_NAME":"HULIANWANG DIGUI-110","OBJECT_ID":"2025-285F","EPOCH":"2026-07-21T04:34:20.729280","CLASSIFICATION_TYPE":"U","MEAN_MOTION":13.2932652,"ECCENTRICITY":0.00008709,"INCLINATION":50.012,"RA_OF_ASC_NODE":24.002,"ARG_OF_PERICENTER":60.1602,"MEAN_ANOMALY":299.9357,"EPHEMERIS_TYPE":0,"NORAD_CAT_ID":66920,"ELEMENT_SET_NO":999,"REV_AT_EPOCH":3058,"BSTAR":0.000005693686,"MEAN_MOTION_DOT":-0.00000121,"MEAN_MOTION_DDOT":0},{"OBJECT_NAME":"HULIANWANG DIGUI-111","OBJECT_ID":"2025-285G","EPOCH":"2026-07-21T04:22:22.298592","CLASSIFICATION_TYPE":"U","MEAN_MOTION":13.29326077,"ECCENTRICITY":0.0000894,"INCLINATION":50.0134,"RA_OF_ASC_NODE":23.9891,"ARG_OF_PERICENTER":59.6622,"MEAN_ANOMALY":300.4339,"EPHEMERIS_TYPE":0,"NORAD_CAT_ID":66921,"ELEMENT_SET_NO":999,"REV_AT_EPOCH":3058,"BSTAR":0.000034468545,"MEAN_MOTION_DOT":-0.00000108,"MEAN_MOTION_DDOT":0},{"OBJECT_NAME":"HULIANWANG DIGUI-112","OBJECT_ID":"2025-285H","EPOCH":"2026-07-21T05:58:32.397312","CLASSIFICATION_TYPE":"U","MEAN_MOTION":13.29325919,"ECCENTRICITY":0.00009437,"INCLINATION":50.0099,"RA_OF_ASC_NODE":23.6105,"ARG_OF_PERICENTER":56.7572,"MEAN_ANOMALY":303.3391,"EPHEMERIS_TYPE":0,"NORAD_CAT_ID":66922,"ELEMENT_SET_NO":999,"REV_AT_EPOCH":3059,"BSTAR":0.000007992422,"MEAN_MOTION_DOT":-0.0000012,"MEAN_MOTION_DDOT":0},{"OBJECT_NAME":"HULIANWANG DIGUI-113","OBJECT_ID":"2025-285J","EPOCH":"2026-07-21T05:46:40.297152","CLASSIFICATION_TYPE":"U","MEAN_MOTION":13.29324386,"ECCENTRICITY":0.00009443,"INCLINATION":50.0109,"RA_OF_ASC_NODE":23.5847,"ARG_OF_PERICENTER":56.2111,"MEAN_ANOMALY":303.8851,"EPHEMERIS_TYPE":0,"NORAD_CAT_ID":66923,"ELEMENT_SET_NO":999,"REV_AT_EPOCH":3059,"BSTAR":0.000014247877,"MEAN_MOTION_DOT":-0.00000117,"MEAN_MOTION_DDOT":0},{"OBJECT_NAME":"HULIANWANG DIGUI-114","OBJECT_ID":"2025-287A","EPOCH":"2026-07-21T03:19:25.887648","CLASSIFICATION_TYPE":"U","MEAN_MOTION":13.24413722,"ECCENTRICITY":0.00022649,"INCLINATION":86.4922,"RA_OF_ASC_NODE":270.8949,"ARG_OF_PERICENTER":95.8213,"MEAN_ANOMALY":264.3179,"EPHEMERIS_TYPE":0,"NORAD_CAT_ID":66953,"ELEMENT_SET_NO":999,"REV_AT_EPOCH":2983,"BSTAR":0.000082668517,"MEAN_MOTION_DOT":5e-7,"MEAN_MOTION_DDOT":0},{"OBJECT_NAME":"HULIANWANG DIGUI-115","OBJECT_ID":"2025-287B","EPOCH":"2026-07-21T04:56:59.047008","CLASSIFICATION_TYPE":"U","MEAN_MOTION":13.2440117,"ECCENTRICITY":0.00025141,"INCLINATION":86.4938,"RA_OF_ASC_NODE":270.9021,"ARG_OF_PERICENTER":92.5905,"MEAN_ANOMALY":267.5517,"EPHEMERIS_TYPE":0,"NORAD_CAT_ID":66954,"ELEMENT_SET_NO":999,"REV_AT_EPOCH":2984,"BSTAR":0.000057507065,"MEAN_MOTION_DOT":3.9e-7,"MEAN_MOTION_DDOT":0},{"OBJECT_NAME":"HULIANWANG DIGUI-116","OBJECT_ID":"2025-287C","EPOCH":"2026-07-21T04:46:28.374528","CLASSIFICATION_TYPE":"U","MEAN_MOTION":13.24413351,"ECCENTRICITY":0.00023292,"INCLINATION":86.4878,"RA_OF_ASC_NODE":270.7617,"ARG_OF_PERICENTER":93.5013,"MEAN_ANOMALY":266.6387,"EPHEMERIS_TYPE":0,"NORAD_CAT_ID":66955,"ELEMENT_SET_NO":999,"REV_AT_EPOCH":2984,"BSTAR":0.000033226448,"MEAN_MOTION_DOT":2.9e-7,"MEAN_MOTION_DDOT":0},{"OBJECT_NAME":"HULIANWANG DIGUI-117","OBJECT_ID":"2025-287D","EPOCH":"2026-07-21T02:46:51.194784","CLASSIFICATION_TYPE":"U","MEAN_MOTION":13.24413072,"ECCENTRICITY":0.00007631,"INCLINATION":86.4939,"RA_OF_ASC_NODE":270.9219,"ARG_OF_PERICENTER":75.9707,"MEAN_ANOMALY":284.1512,"EPHEMERIS_TYPE":0,"NORAD_CAT_ID":66956,"ELEMENT_SET_NO":999,"REV_AT_EPOCH":2983,"BSTAR":0.000027579634,"MEAN_MOTION_DOT":2.6e-7,"MEAN_MOTION_DDOT":0},{"OBJECT_NAME":"HULIANWANG DIGUI-118","OBJECT_ID":"2025-287E","EPOCH":"2026-07-21T04:24:45.135072","CLASSIFICATION_TYPE":"U","MEAN_MOTION":13.24412507,"ECCENTRICITY":0.00023084,"INCLINATION":86.4915,"RA_OF_ASC_NODE":270.8384,"ARG_OF_PERICENTER":95.3743,"MEAN_ANOMALY":264.7655,"EPHEMERIS_TYPE":0,"NORAD_CAT_ID":66957,"ELEMENT_SET_NO":999,"REV_AT_EPOCH":2984,"BSTAR":-0.000001704611,"MEAN_MOTION_DOT":1.4e-7,"MEAN_MOTION_DDOT":0},{"OBJECT_NAME":"HULIANWANG DIGUI-119","OBJECT_ID":"2025-295A","EPOCH":"2026-07-21T05:06:26.163648","CLASSIFICATION_TYPE":"U","MEAN_MOTION":13.29324919,"ECCENTRICITY":0.0001119,"INCLINATION":50.0028,"RA_OF_ASC_NODE":263.7497,"ARG_OF_PERICENTER":214.1317,"MEAN_ANOMALY":145.9483,"EPHEMERIS_TYPE":0,"NORAD_CAT_ID":67059,"ELEMENT_SET_NO":999,"REV_AT_EPOCH":3002,"BSTAR":0.000067508714,"MEAN_MOTION_DOT":-9.3e-7,"MEAN_MOTION_DDOT":0},{"OBJECT_NAME":"HULIANWANG DIGUI-120","OBJECT_ID":"2025-295B","EPOCH":"2026-07-20T08:51:33.003072","CLASSIFICATION_TYPE":"U","MEAN_MOTION":13.29324813,"ECCENTRICITY":0.000117,"INCLINATION":50.0037,"RA_OF_ASC_NODE":266.639,"ARG_OF_PERICENTER":211.7072,"MEAN_ANOMALY":148.3729,"EPHEMERIS_TYPE":0,"NORAD_CAT_ID":67060,"ELEMENT_SET_NO":999,"REV_AT_EPOCH":2991,"BSTAR":0.000058985,"MEAN_MOTION_DOT":-9.7e-7,"MEAN_MOTION_DDOT":0},{"OBJECT_NAME":"HULIANWANG DIGUI-121","OBJECT_ID":"2025-295C","EPOCH":"2026-07-21T03:06:08.793216","CLASSIFICATION_TYPE":"U","MEAN_MOTION":13.29326189,"ECCENTRICITY":0.00011564,"INCLINATION":49.9996,"RA_OF_ASC_NODE":263.9105,"ARG_OF_PERICENTER":212.6022,"MEAN_ANOMALY":147.4779,"EPHEMERIS_TYPE":0,"NORAD_CAT_ID":67061,"ELEMENT_SET_NO":999,"REV_AT_EPOCH":3001,"BSTAR":0.000068813785,"MEAN_MOTION_DOT":-9.2e-7,"MEAN_MOTION_DDOT":0},{"OBJECT_NAME":"HULIANWANG DIGUI-122","OBJECT_ID":"2025-295D","EPOCH":"2026-07-21T04:30:15.086304","CLASSIFICATION_TYPE":"U","MEAN_MOTION":13.29324806,"ECCENTRICITY":0.00011591,"INCLINATION":50.0029,"RA_OF_ASC_NODE":263.6193,"ARG_OF_PERICENTER":212.5505,"MEAN_ANOMALY":147.5296,"EPHEMERIS_TYPE":0,"NORAD_CAT_ID":67062,"ELEMENT_SET_NO":999,"REV_AT_EPOCH":3002,"BSTAR":0.000051707802,"MEAN_MOTION_DOT":-0.000001,"MEAN_MOTION_DDOT":0},{"OBJECT_NAME":"HULIANWANG DIGUI-123","OBJECT_ID":"2025-295E","EPOCH":"2026-07-21T02:30:02.918880","CLASSIFICATION_TYPE":"U","MEAN_MOTION":13.29324427,"ECCENTRICITY":0.00010748,"INCLINATION":50.003,"RA_OF_ASC_NODE":263.8493,"ARG_OF_PERICENTER":213.9563,"MEAN_ANOMALY":146.124,"EPHEMERIS_TYPE":0,"NORAD_CAT_ID":67063,"ELEMENT_SET_NO":999,"REV_AT_EPOCH":3001,"BSTAR":0.00005813678,"MEAN_MOTION_DOT":-9.7e-7,"MEAN_MOTION_DDOT":0}]}
